0 INTELSAT 4-F3
1 05709U 71116A   13280.39145794 -.00000064  00000-0  10000-3 0  6412
2 05709 014.6115 341.3570 0008128 358.7000 001.3093 00.99626449 72729
0 INTELSAT 4-F3
1 05709U 71116A   13283.40256497 -.00000124  00000-0  10000-3 0  6428
2 05709 014.6100 341.3260 0008131 358.8587 001.1447 00.99627267 72757
0 INTELSAT 4-F3
1 05709U 71116A   13283.40258314  .00000000  00000-0  10000-3 0  6431
2 05709 014.6129 341.3262 0008217 355.8711 004.1318 00.99623024 72758
0 INTELSAT 4-F3
1 05709U 71116A   13286.41365165 -.00000186  00000-0  10000-3 0  6434
2 05709 014.6085 341.2951 0008115 358.8066 001.1906 00.99627805 72780
0 INTELSAT 4-F3
1 05709U 71116A   13288.42102889 -.00000224  00000-0  10000-3 0  6443
2 05709 014.6076 341.2744 0008091 359.2708 000.7216 00.99628004 72805
0 INTELSAT 4-F3
1 05709U 71116A   13290.42839888 -.00000258  00000-0  10000-3 0  6450
2 05709 014.6066 341.2538 0007992 000.0568 359.9278 00.99628026 72822
0 INTELSAT 4-F3
1 05709U 71116A   13291.43209346 -.00000273  00000-0  10000-3 0  6460
2 05709 014.6063 341.2431 0007761 002.5097 357.4814 00.99628038 72832
0 INTELSAT 4-F3
1 05709U 71116A   13293.43947726 -.00000298  00000-0  10000-3 0  6471
2 05709 014.6051 341.2228 0007698 003.3214 356.6656 00.99627816 72852
